{
  "type": "FeatureCollection",
  "features": [
    {
      "type": "Feature",
      "properties": {
        "norad_id": 39766,
        "name": "ALOS-2",
        "group": "resource",
        "lat": 28.795290943825286,
        "lon": 77.6043998290797,
        "alt_km": 629.2953909407734,
        "timestamp": "2025-12-13T03:42:10.937172+00:00",
        "meta_object_name": "ALOS-2",
        "meta_object_id": "2014-029A",
        "meta_epoch": "2025-12-12T06:28:14.015424",
        "meta_mean_motion": 14.79472596,
        "meta_eccentricity": 0.00013835,
        "meta_inclination": 97.9217,
        "meta_ra_of_asc_node": 81.1219,
        "meta_arg_of_pericenter": 100.587,
        "meta_mean_anomaly": 259.5497,
        "meta_ephemeris_type": 0,
        "meta_classification_type": "U",
        "meta_norad_cat_id": 39766,
        "meta_element_set_no": 999,
        "meta_rev_at_epoch": 62394,
        "meta_bstar": 0.00066761856,
        "meta_mean_motion_dot": 4.938e-05,
        "meta_mean_motion_ddot": 0,
        "tle_line1": "1 39766U 14029A   25346.26960666  .00004938  00000+0  66762-3 0  9991",
        "tle_line2": "2 39766  97.9217  81.1219 0001383 100.5870 259.5497 14.79472596623945"
      },
      "geometry": {
        "type": "Point",
        "coordinates": [
          77.6043998290797,
          28.795290943825286
        ]
      }
    },
    {
      "type": "Feature",
      "properties": {
        "norad_id": 40010,
        "name": "KAZEOSAT 2",
        "group": "resource",
        "lat": -51.538063977237556,
        "lon": -158.9405247079864,
        "alt_km": 621.1713752027199,
        "timestamp": "2025-12-13T03:42:10.937182+00:00",
        "meta_object_name": "KAZEOSAT 2",
        "meta_object_id": "2014-033A",
        "meta_epoch": "2025-12-12T06:55:01.476192",
        "meta_mean_motion": 14.8516773,
        "meta_eccentricity": 0.00075883,
        "meta_inclination": 97.5507,
        "meta_ra_of_asc_node": 190.626,
        "meta_arg_of_pericenter": 208.2241,
        "meta_mean_anomaly": 151.8564,
        "meta_ephemeris_type": 0,
        "meta_classification_type": "U",
        "meta_norad_cat_id": 40010,
        "meta_element_set_no": 999,
        "meta_rev_at_epoch": 62121,
        "meta_bstar": 0.00015364873,
        "meta_mean_motion_dot": 1.266e-05,
        "meta_mean_motion_ddot": 0,
        "tle_line1": "1 40010U 14033A   25346.28821153  .00001266  00000+0  15365-3 0  9993",
        "tle_line2": "2 40010  97.5507 190.6260 0007588 208.2241 151.8564 14.85167730621215"
      },
      "geometry": {
        "type": "Point",
        "coordinates": [
          -158.9405247079864,
          -51.538063977237556
        ]
      }
    },
    {
      "type": "Feature",
      "properties": {
        "norad_id": 40011,
        "name": "HODOYOSHI-4",
        "group": "resource",
        "lat": 38.43987833415062,
        "lon": 169.98138359767393,
        "alt_km": 618.2539103346935,
        "timestamp": "2025-12-13T03:42:10.937192+00:00",
        "meta_object_name": "HODOYOSHI-4",
        "meta_object_id": "2014-033B",
        "meta_epoch": "2025-12-12T08:09:16.515936",
        "meta_mean_motion": 14.87478545,
        "meta_eccentricity": 0.00232375,
        "meta_inclination": 97.5416,
        "meta_ra_of_asc_node": 175.2433,
        "meta_arg_of_pericenter": 201.934,
        "meta_mean_anomaly": 158.0885,
        "meta_ephemeris_type": 0,
        "meta_classification_type": "U",
        "meta_norad_cat_id": 40011,
        "meta_element_set_no": 999,
        "meta_rev_at_epoch": 62102,
        "meta_bstar": 0.00034949765,
        "meta_mean_motion_dot": 3.13e-05,
        "meta_mean_motion_ddot": 0,
        "tle_line1": "1 40011U 14033B   25346.33977449  .00003130  00000+0  34950-3 0  9993",
        "tle_line2": "2 40011  97.5416 175.2433 0023237 201.9340 158.0885 14.87478545621020"
      },
      "geometry": {
        "type": "Point",
        "coordinates": [
          169.98138359767393,
          38.43987833415062
        ]
      }
    },
    {
      "type": "Feature",
      "properties": {
        "norad_id": 40013,
        "name": "DEIMOS-2",
        "group": "resource",
        "lat": -24.326326783279576,
        "lon": 39.47728090902273,
        "alt_km": 594.4821899350691,
        "timestamp": "2025-12-13T03:42:10.937203+00:00",
        "meta_object_name": "DEIMOS-2",
        "meta_object_id": "2014-033D",
        "meta_epoch": "2025-12-12T07:29:16.068192",
        "meta_mean_motion": 14.92967475,
        "meta_eccentricity": 8.326e-05,
        "meta_inclination": 97.606,
        "meta_ra_of_asc_node": 222.1263,
        "meta_arg_of_pericenter": 95.9106,
        "meta_mean_anomaly": 264.2209,
        "meta_ephemeris_type": 0,
        "meta_classification_type": "U",
        "meta_norad_cat_id": 40013,
        "meta_element_set_no": 999,
        "meta_rev_at_epoch": 60983,
        "meta_bstar": 0.00022764838,
        "meta_mean_motion_dot": 2.31e-05,
        "meta_mean_motion_ddot": 0,
        "tle_line1": "1 40013U 14033D   25346.31199153  .00002310  00000+0  22765-3 0  9991",
        "tle_line2": "2 40013  97.6060 222.1263 0000832  95.9106 264.2209 14.92967475609834"
      },
      "geometry": {
        "type": "Point",
        "coordinates": [
          39.47728090902273,
          -24.326326783279576
        ]
      }
    },
    {
      "type": "Feature",
      "properties": {
        "norad_id": 40015,
        "name": "HODOYOSHI-3",
        "group": "resource",
        "lat": -38.909579693719415,
        "lon": 159.17435921550324,
        "alt_km": 614.5128633665527,
        "timestamp": "2025-12-13T03:42:10.937213+00:00",
        "meta_object_name": "HODOYOSHI-3",
        "meta_object_id": "2014-033F",
        "meta_epoch": "2025-12-12T05:14:12.056640",
        "meta_mean_motion": 14.84804063,
        "meta_eccentricity": 0.0031895,
        "meta_inclination": 97.6199,
        "meta_ra_of_asc_node": 152.0759,
        "meta_arg_of_pericenter": 249.7333,
        "meta_mean_anomaly": 110.0453,
        "meta_ephemeris_type": 0,
        "meta_classification_type": "U",
        "meta_norad_cat_id": 40015,
        "meta_element_set_no": 999,
        "meta_rev_at_epoch": 61987,
        "meta_bstar": 0.00033291262,
        "meta_mean_motion_dot": 2.799e-05,
        "meta_mean_motion_ddot": 0,
        "tle_line1": "1 40015U 14033F   25346.21819510  .00002799  00000+0  33291-3 0  9995",
        "tle_line2": "2 40015  97.6199 152.0759 0031895 249.7333 110.0453 14.84804063619872"
      },
      "geometry": {
        "type": "Point",
        "coordinates": [
          159.17435921550324,
          -38.909579693719415
        ]
      }
    },
    {
      "type": "Feature",
      "properties": {
        "norad_id": 40053,
        "name": "SPOT 7",
        "group": "resource",
        "lat": 7.100855404778497,
        "lon": 48.2043031134738,
        "alt_km": 692.5931132223177,
        "timestamp": "2025-12-13T03:42:10.937223+00:00",
        "meta_object_name": "SPOT 7",
        "meta_object_id": "2014-034A",
        "meta_epoch": "2025-12-12T07:56:32.771040",
        "meta_mean_motion": 14.60733279,
        "meta_eccentricity": 0.00015616,
        "meta_inclination": 98.0902,
        "meta_ra_of_asc_node": 48.4153,
        "meta_arg_of_pericenter": 88.0675,
        "meta_mean_anomaly": 272.0705,
        "meta_ephemeris_type": 0,
        "meta_classification_type": "U",
        "meta_norad_cat_id": 40053,
        "meta_element_set_no": 999,
        "meta_rev_at_epoch": 60985,
        "meta_bstar": 0.00021006964,
        "meta_mean_motion_dot": 9.79e-06,
        "meta_mean_motion_ddot": 0,
        "tle_line1": "1 40053U 14034A   25346.33093485  .00000979  00000+0  21007-3 0  9996",
        "tle_line2": "2 40053  98.0902  48.4153 0001561  88.0675 272.0705 14.60733279609857"
      },
      "geometry": {
        "type": "Point",
        "coordinates": [
          48.2043031134738,
          7.100855404778497
        ]
      }
    },
    {
      "type": "Feature",
      "properties": {
        "norad_id": 40072,
        "name": "SKYSAT-B",
        "group": "resource",
        "lat": -17.997041265192312,
        "lon": -66.37945157662124,
        "alt_km": 615.4645465226713,
        "timestamp": "2025-12-13T03:42:10.937233+00:00",
        "meta_object_name": "SKYSAT-B",
        "meta_object_id": "2014-037D",
        "meta_epoch": "2025-12-12T06:47:41.354592",
        "meta_mean_motion": 14.87325495,
        "meta_eccentricity": 0.00061144,
        "meta_inclination": 98.3607,
        "meta_ra_of_asc_node": 289.9651,
        "meta_arg_of_pericenter": 151.3862,
        "meta_mean_anomaly": 208.7689,
        "meta_ephemeris_type": 0,
        "meta_classification_type": "U",
        "meta_norad_cat_id": 40072,
        "meta_element_set_no": 999,
        "meta_rev_at_epoch": 61817,
        "meta_bstar": 0.00032590687,
        "meta_mean_motion_dot": 2.882e-05,
        "meta_mean_motion_ddot": 0,
        "tle_line1": "1 40072U 14037D   25346.28311753  .00002882  00000+0  32591-3 0  9990",
        "tle_line2": "2 40072  98.3607 289.9651 0006114 151.3862 208.7689 14.87325495618177"
      },
      "geometry": {
        "type": "Point",
        "coordinates": [
          -66.37945157662124,
          -17.997041265192312
        ]
      }
    }
  ]
}